STARLINK-32566          
1 61958U 24209V   26133.17310161  .00017417  00000+0  40860-3 0  9991
2 61958  53.1590 201.1769 0001297  89.4262 270.6893 15.42172887 84811
STARLINK-32499          
1 61959U 24210A   26132.82738512  .00007947  00000+0  29797-3 0  9992
2 61959  43.0002 177.2126 0001132 279.0659  81.0064 15.27582003 84736
STARLINK-32372          
1 61960U 24210B   26133.16201024  .00009076  00000+0  33878-3 0  9995
2 61960  42.9984 175.4218 0000552  97.1173 262.9742 15.27596068 84641
STARLINK-32452          
1 61961U 24210C   26133.17197293  .00007551  00000+0  28359-3 0  9993
2 61961  43.0010 168.5743 0001914 273.2953  86.7680 15.27585866 84856
STARLINK-32458          
1 61962U 24210D   26133.14724307  .00011278  00000+0  41878-3 0  9995
2 61962  42.9998 161.4610 0001451 265.9019  94.1667 15.27576852 84934
STARLINK-32487          
1 61963U 24210E   26132.53770220  .00009767  00000+0  36366-3 0  9999
2 61963  43.0001 179.3297 0001437 275.7305  84.3382 15.27609500 84675
STARLINK-32513          
1 61964U 24210F   26132.80874775  .00010262  00000+0  38172-3 0  9999
2 61964  43.0023 163.2261 0002266 283.0191  77.0407 15.27596844 84885
STARLINK-32514          
1 61965U 24210G   26132.39119285  .00007490  00000+0  28143-3 0  9998
2 61965  42.9985 173.0309 0001503 268.3635  91.7045 15.27581311 84733
STARLINK-32498          
1 61966U 24210H   26132.79460806  .00009492  00000+0  35395-3 0  9992
2 61966  43.0041 163.1180 0001539 273.2973  86.7703 15.27586981 84884
STARLINK-32518          
1 61967U 24210J   26132.80917324  .00007063  00000+0  26587-3 0  9992
2 61967  42.9998 170.8208 0001580 269.5300  90.5370 15.27588656 84668
STARLINK-32471          
1 61968U 24210K   26132.51168264  .00007278  00000+0  27365-3 0  9995
2 61968  42.9997 172.2235 0001839 277.1902  82.8740 15.27590989 84762
STARLINK-32450          
1 61969U 24210L   26132.51554220  .00008026  00000+0  30077-3 0  9993
2 61969  43.0008 172.2478 0001600 272.6886  87.3782 15.27589961 84623
STARLINK-32613          
1 61970U 24210M   26132.81723641  .00014124  00000+0  52171-3 0  9998
2 61970  43.0004 177.9881 0001335 278.3377  81.7323 15.27586004 84729
STARLINK-32610          
1 61971U 24210N   26132.80952286  .00009560  00000+0  35633-3 0  9999
2 61971  42.9997 177.9277 0001436 275.1073  84.9615 15.27593230 84726
STARLINK-32612          
1 61972U 24210P   26132.81337483  .00009084  00000+0  33906-3 0  9999
2 61972  42.9931 177.9509 0002125 292.7153  67.3473 15.27593478 84689
STARLINK-32601          
1 61973U 24210Q   26133.15817543  .00016444  00000+0  60550-3 0  9991
2 61973  42.9978 175.3927 0001192 289.5355  70.5368 15.27593521 84743
STARLINK-32593          
1 61974U 24210R   26133.15059128  .00008414  00000+0  31489-3 0  9996
2 61974  43.0002 176.1964 0001182 270.3562  89.7154 15.27584196 84733
STARLINK-32586          
1 61975U 24210S   26133.18770263  .00009431  00000+0  35162-3 0  9992
2 61975  42.9976 175.6047 0001590 254.7833 105.2843 15.27595565 84740
STARLINK-32611          
1 61976U 24210T   26133.18385018  .00005687  00000+0  21598-3 0  9990
2 61976  42.9992 175.5801 0001490 250.5133 109.5558 15.27587464 84741
STARLINK-32607          
1 61977U 24210U   26132.47873659  .00010623  00000+0  39485-3 0  9995
2 61977  43.0000 179.7447 0001610 273.1990  86.8678 15.27591472 84678
STARLINK-32606          
1 61978U 24210V   26133.16843394  .00004993  00000+0  19083-3 0  9991
2 61978  43.0001 175.4641 0001151 259.5494 100.5228 15.27581103 84749
STARLINK-32578          
1 61979U 24210W   26133.16972062  .00006469  00000+0  24435-3 0  9994
2 61979  43.0017 175.4790 0001305 271.1252  88.9450 15.27586169 84782
STARLINK-32517          
1 61980U 24210X   26133.14801828  .00007024  00000+0  26442-3 0  9993
2 61980  42.9972 176.1714 0001376 280.8282  79.2415 15.27590657 84684
STARLINK-32522          
1 61981U 24210Y   26133.17999656  .00012614  00000+0  46701-3 0  9995
2 61981  43.0004 175.5535 0001490 259.8371 100.2313 15.27586989 84741
STARLINK-32560          
1 61982U 24210Z   26133.16586444  .00006430  00000+0  24292-3 0  9992
2 61982  42.9989 175.4483 0001268 282.1546  77.9164 15.27586072 84746
OPTUS-X (ADS-01)        
1 62006U 24212A   26133.13778509 -.00000130  00000+0  00000+0 0  9993
2 62006   0.0199 291.1799 0001479 159.4442 346.2917  1.00270790  5400
STARLINK-11433 [DTC]    
1 62008U 24213A   26133.16215660  .00154330  00000+0  12550-2 0  9990
2 62008  53.1571  83.2612 0001025  71.8681 288.2449 15.69713651 85049
STARLINK-11262 [DTC]    
1 62009U 24213B   26133.13773243  .00162660  00000+0  13146-2 0  9991
2 62009  53.1559  83.8413 0001201 116.3715 243.7426 15.69832962 85037
STARLINK-11326 [DTC]    
1 62010U 24213C   26133.18179345  .00138598  00000+0  11275-2 0  9995
2 62010  53.1567  83.3943 0000960 105.7128 254.3996 15.69760614 85047
STARLINK-11330 [DTC]    
1 62011U 24213D   26133.13282671  .00140807  00000+0  11456-2 0  9995
2 62011  53.1559  83.8057 0000937  94.8284 265.2841 15.69750006 85038
