OBJECT_NAME,OBJECT_ID,EPOCH,MEAN_MOTION,ECCENTRICITY,INCLINATION,RA_OF_ASC_NODE,ARG_OF_PERICENTER,MEAN_ANOMALY,EPHEMERIS_TYPE,CLASSIFICATION_TYPE,NORAD_CAT_ID,ELEMENT_SET_NO,REV_AT_EPOCH,BSTAR,MEAN_MOTION_DOT,MEAN_MOTION_DDOT
STARLINK-32566,2024-209V,2026-05-13T04:09:15.979104,15.42172887,.00012973,53.1590,201.1769,89.4262,270.6893,0,U,61958,999,8481,.40860448E-3,.17417E-3,0
STARLINK-32499,2024-210A,2026-05-12T19:51:26.074368,15.27582003,.0001132,43.0002,177.2126,279.0659,81.0064,0,U,61959,999,8473,.29797189E-3,.7947E-4,0
STARLINK-32372,2024-210B,2026-05-13T03:53:17.684736,15.27596068,.0000552,42.9984,175.4218,97.1173,262.9742,0,U,61960,999,8464,.33877611E-3,.9076E-4,0
STARLINK-32452,2024-210C,2026-05-13T04:07:38.461152,15.27585866,.00019141,43.0010,168.5743,273.2953,86.7680,0,U,61961,999,8485,.28358754E-3,.7551E-4,0
STARLINK-32458,2024-210D,2026-05-13T03:32:01.801248,15.27576852,.00014515,42.9998,161.4610,265.9019,94.1667,0,U,61962,999,8493,.41877688E-3,.11278E-3,0
STARLINK-32487,2024-210E,2026-05-12T12:54:17.470080,15.27609500,.0001437,43.0001,179.3297,275.7305,84.3382,0,U,61963,999,8467,.36366E-3,.9767E-4,0
STARLINK-32513,2024-210F,2026-05-12T19:24:35.805600,15.27596844,.00022669,43.0023,163.2261,283.0191,77.0407,0,U,61964,999,8488,.38172054E-3,.10262E-3,0
STARLINK-32514,2024-210G,2026-05-12T09:23:19.062240,15.27581311,.0001503,42.9985,173.0309,268.3635,91.7045,0,U,61965,999,8473,.28143E-3,.749E-4,0
STARLINK-32498,2024-210H,2026-05-12T19:04:14.136384,15.27586981,.00015396,43.0041,163.1180,273.2973,86.7703,0,U,61966,999,8488,.35394733E-3,.9492E-4,0
STARLINK-32518,2024-210J,2026-05-12T19:25:12.567936,15.27588656,.00015805,42.9998,170.8208,269.5300,90.5370,0,U,61967,999,8466,.26587068E-3,.7063E-4,0
STARLINK-32471,2024-210K,2026-05-12T12:16:49.380096,15.27590989,.0001839,42.9997,172.2235,277.1902,82.8740,0,U,61968,999,8476,.27365E-3,.7278E-4,0
STARLINK-32450,2024-210L,2026-05-12T12:22:22.846080,15.27589961,.00016,43.0008,172.2478,272.6886,87.3782,0,U,61969,999,8462,.30077E-3,.8026E-4,0
STARLINK-32613,2024-210M,2026-05-12T19:36:49.225824,15.27586004,.00013358,43.0004,177.9881,278.3377,81.7323,0,U,61970,999,8472,.52170775E-3,.14124E-3,0
STARLINK-32610,2024-210N,2026-05-12T19:25:42.775104,15.27593230,.00014361,42.9997,177.9277,275.1073,84.9615,0,U,61971,999,8472,.35632914E-3,.956E-4,0
STARLINK-32612,2024-210P,2026-05-12T19:31:15.585312,15.27593478,.00021252,42.9931,177.9509,292.7153,67.3473,0,U,61972,999,8468,.33906242E-3,.9084E-4,0
STARLINK-32601,2024-210Q,2026-05-13T03:47:46.357152,15.27593521,.00011922,42.9978,175.3927,289.5355,70.5368,0,U,61973,999,8474,.60549505E-3,.16444E-3,0
STARLINK-32593,2024-210R,2026-05-13T03:36:51.086592,15.27584196,.00011824,43.0002,176.1964,270.3562,89.7154,0,U,61974,999,8473,.31489298E-3,.8414E-4,0
STARLINK-32586,2024-210S,2026-05-13T04:30:17.507232,15.27595565,.00015905,42.9976,175.6047,254.7833,105.2843,0,U,61975,999,8474,.35162378E-3,.9431E-4,0
STARLINK-32611,2024-210T,2026-05-13T04:24:44.655552,15.27587464,.00014906,42.9992,175.5801,250.5133,109.5558,0,U,61976,999,8474,.21597867E-3,.5687E-4,0
STARLINK-32607,2024-210U,2026-05-12T11:29:22.841376,15.27591472,.000161,43.0000,179.7447,273.1990,86.8678,0,U,61977,999,8467,.39485E-3,.10623E-3,0
STARLINK-32606,2024-210V,2026-05-13T04:02:32.692416,15.27581103,.00011512,43.0001,175.4641,259.5494,100.5228,0,U,61978,999,8474,.19083394E-3,.4993E-4,0
STARLINK-32578,2024-210W,2026-05-13T04:04:23.861568,15.27586169,.00013058,43.0017,175.4790,271.1252,88.9450,0,U,61979,999,8478,.24435381E-3,.6469E-4,0
STARLINK-32517,2024-210X,2026-05-13T03:33:08.779392,15.27590657,.00013763,42.9972,176.1714,280.8282,79.2415,0,U,61980,999,8468,.26442225E-3,.7024E-4,0
STARLINK-32522,2024-210Y,2026-05-13T04:19:11.702784,15.27586989,.000149,43.0004,175.5535,259.8371,100.2313,0,U,61981,999,8474,.46701093E-3,.12614E-3,0
STARLINK-32560,2024-210Z,2026-05-13T03:58:50.687616,15.27586072,.00012683,42.9989,175.4483,282.1546,77.9164,0,U,61982,999,8474,.24292084E-3,.643E-4,0
OPTUS-X (ADS-01),2024-212A,2026-05-13T03:18:24.631776,1.00270790,.00014798,0.0199,291.1799,159.4442,346.2917,0,U,62006,999,540,0,-.13E-5,0
STARLINK-11433 [DTC],2024-213A,2026-05-13T03:53:30.330240,15.69713651,.00010254,53.1571,83.2612,71.8681,288.2449,0,U,62008,999,8504,.12549555E-2,.15433E-2,0
STARLINK-11262 [DTC],2024-213B,2026-05-13T03:18:20.081952,15.69832962,.00012015,53.1559,83.8413,116.3715,243.7426,0,U,62009,999,8503,.13145852E-2,.16266E-2,0
STARLINK-11326 [DTC],2024-213C,2026-05-13T04:21:46.954080,15.69760614,.00009607,53.1567,83.3943,105.7128,254.3996,0,U,62010,999,8504,.1127472E-2,.138598E-2,0
STARLINK-11330 [DTC],2024-213D,2026-05-13T03:11:16.227744,15.69750006,.00009377,53.1559,83.8057,94.8284,265.2841,0,U,62011,999,8503,.11455657E-2,.140807E-2,0
